[{"OBJECT_NAME":"YAM-7","OBJECT_ID":"2024-149AN","EPOCH":"2026-03-09T17:13:55.117920","MEAN_MOTION":15.30304554,"ECCENTRICITY":0.00019733,"INCLINATION":97.3828,"RA_OF_ASC_NODE":149.4631,"ARG_OF_PERICENTER":296.5121,"MEAN_ANOMALY":63.5918,"EPHEMERIS_TYPE":0,"CLASSIFICATION_TYPE":"U","NORAD_CAT_ID":60504,"ELEMENT_SET_NO":999,"REV_AT_EPOCH":8683,"BSTAR":0.00030984439,"MEAN_MOTION_DOT":9.009e-5,"MEAN_MOTION_DDOT":0},{"OBJECT_NAME":"STARLINK-34698","OBJECT_ID":"2025-259Z","EPOCH":"2026-03-09T22:14:30.459552","MEAN_MOTION":15.27574666,"ECCENTRICITY":0.00016072,"INCLINATION":42.9968,"RA_OF_ASC_NODE":273.3385,"ARG_OF_PERICENTER":242.2652,"MEAN_ANOMALY":117.8036,"EPHEMERIS_TYPE":0,"CLASSIFICATION_TYPE":"U","NORAD_CAT_ID":66445,"ELEMENT_SET_NO":999,"REV_AT_EPOCH":1941,"BSTAR":0.00091387955,"MEAN_MOTION_DOT":0.00024967,"MEAN_MOTION_DDOT":0}]
